{
  "norad_id": 60042,
  "name": "STARLINK-11120 [DTC]",
  "history": [
    {
      "epoch": "2026-05-09T20:06:37.152000Z",
      "apogee_km": 360.418827020002,
      "perigee_km": 359.10897908444895,
      "latitude_deg": 5.417747138162587e-05,
      "longitude_deg": 155.6297722126652,
      "height_km": 360.55786530918317,
      "semi_major_axis_km": 6737.900903052226,
      "eccentricity": 9.72e-05,
      "inclination_deg": 53.1592,
      "raan_deg": 324.9343,
      "arg_perigee_deg": 79.4608,
      "mean_anomaly_deg": 280.652,
      "mean_motion_rev_day": 15.69697017
    },
    {
      "epoch": "2026-05-10T19:01:51.972960Z",
      "apogee_km": 360.41005481562934,
      "perigee_km": 359.09751369085643,
      "latitude_deg": 5.2319503600644996e-05,
      "longitude_deg": 166.16669257451824,
      "height_km": 360.6399080335696,
      "semi_major_axis_km": 6737.890784253243,
      "eccentricity": 9.74e-05,
      "inclination_deg": 53.1582,
      "raan_deg": 320.2243,
      "arg_perigee_deg": 87.5987,
      "mean_anomaly_deg": 272.5143,
      "mean_motion_rev_day": 15.69700553
    },
    {
      "epoch": "2026-05-11T19:28:48.309600Z",
      "apogee_km": 360.16911495840486,
      "perigee_km": 359.29723455779003,
      "latitude_deg": -6.675869822467762e-05,
      "longitude_deg": 153.40578352686546,
      "height_km": 360.6766497907657,
      "semi_major_axis_km": 6737.870174758097,
      "eccentricity": 6.47e-05,
      "inclination_deg": 53.1584,
      "raan_deg": 315.2023,
      "arg_perigee_deg": 93.8652,
      "mean_anomaly_deg": 266.2439,
      "mean_motion_rev_day": 15.69707755
    },
    {
      "epoch": "2026-05-12T12:17:19.676256Z",
      "apogee_km": 360.23836018185557,
      "perigee_km": 359.2034252095373,
      "latitude_deg": 7.428011806270581e-05,
      "longitude_deg": -102.86851486803062,
      "height_km": 360.8484576177735,
      "semi_major_axis_km": 6737.857892695696,
      "eccentricity": 7.68e-05,
      "inclination_deg": 53.1588,
      "raan_deg": 311.7489,
      "arg_perigee_deg": 114.3703,
      "mean_anomaly_deg": 245.7396,
      "mean_motion_rev_day": 15.69712047
    },
    {
      "epoch": "2026-05-13T17:19:19.480800Z",
      "apogee_km": 360.24311631459295,
      "perigee_km": 359.23917247107875,
      "latitude_deg": 2.106685654150815e-05,
      "longitude_deg": 174.47680620927386,
      "height_km": 360.8167399262023,
      "semi_major_axis_km": 6737.878144392836,
      "eccentricity": 7.45e-05,
      "inclination_deg": 53.1595,
      "raan_deg": 305.7858,
      "arg_perigee_deg": 108.7652,
      "mean_anomaly_deg": 251.3447,
      "mean_motion_rev_day": 15.6970497
    },
    {
      "epoch": "2026-05-13T17:19:19.481664Z",
      "apogee_km": 360.242779420686,
      "perigee_km": 359.2395093649866,
      "latitude_deg": 2.5454015551241403e-05,
      "longitude_deg": 174.4768058678073,
      "height_km": 360.8166315502559,
      "semi_major_axis_km": 6737.878144392836,
      "eccentricity": 7.445e-05,
      "inclination_deg": 53.1595,
      "raan_deg": 305.7858,
      "arg_perigee_deg": 108.7652,
      "mean_anomaly_deg": 251.3447,
      "mean_motion_rev_day": 15.6970497
    },
    {
      "epoch": "2026-05-14T20:49:37.581312Z",
      "apogee_km": 360.2632735460875,
      "perigee_km": 359.184137775469,
      "latitude_deg": 9.550717271601372e-06,
      "longitude_deg": 115.12178782884688,
      "height_km": 360.8098810649955,
      "semi_major_axis_km": 6737.860705660778,
      "eccentricity": 8.008e-05,
      "inclination_deg": 53.1595,
      "raan_deg": 300.1358,
      "arg_perigee_deg": 108.6028,
      "mean_anomaly_deg": 251.5077,
      "mean_motion_rev_day": 15.69711064
    },
    {
      "epoch": "2026-05-16T17:08:26.403072Z",
      "apogee_km": 360.2831137152598,
      "perigee_km": 359.0972561307135,
      "latitude_deg": -1.243130650888613e-05,
      "longitude_deg": 159.49835189897652,
      "height_km": 360.41094444540994,
      "semi_major_axis_km": 6737.827184922986,
      "eccentricity": 8.8e-05,
      "inclination_deg": 53.1593,
      "raan_deg": 291.0357,
      "arg_perigee_deg": 70.9847,
      "mean_anomaly_deg": 289.1266,
      "mean_motion_rev_day": 15.69722778
    }
  ]
}